IRIDIUM 119             
1 42959U 17061E   23222.76177372  .00000044  00000+0  85318-5 0  9992
2 42959  86.3946 100.5060 0002170  91.9409 268.2036 14.34215202305549
IRIDIUM 107             
1 42960U 17061F   23222.64128344  .00000270  00000+0  89471-4 0  9990
2 42960  86.3947 100.5715 0002333  88.9766 271.1697 14.34217080305544
IRIDIUM 132             
1 42961U 17061G   23222.36854978  .00000043  00000+0  82137-5 0  9990
2 42961  86.3949 100.6719 0002335  90.7289 269.4174 14.34215167305493
IRIDIUM 136             
1 42962U 17061H   23222.67933208  .00000267  00000+0  88337-4 0  9994
2 42962  86.3948 100.5440 0001903  87.4131 272.7283 14.34220015305555
IRIDIUM 139             
1 42963U 17061J   23222.68567980 -.00000047  00000+0 -23747-4 0  9998
2 42963  86.3950 100.5869 0002227  88.3811 271.7640 14.34215770305568
IRIDIUM 125             
1 42964U 17061K   23222.39392050  .00000016  00000+0 -11990-5 0  9994
2 42964  86.3950 100.7510 0002217  92.4402 267.7048 14.34215849305536
IRIDIUM 135             
1 43070U 17083A   23221.94943290  .00000134  00000+0  40608-4 0  9992
2 43070  86.3956  37.5884 0002390  83.5098 276.6370 14.34217407294767
IRIDIUM 138             
1 43071U 17083B   23222.46319566  .00000123  00000+0  36797-4 0  9996
2 43071  86.3945  37.1297 0002122  95.9152 264.2286 14.34217333294825
